start=new Date('2023-03-23T00:00:00.000Z').valueOf();
sats=[{"OBJECT_TYPE":"PAYLOAD","BSTAR":"0.00012938000000","COUNTRY_CODE":"US","EPHEMERIS_TYPE":"0","SITE":"AFETR","SEMIMAJOR_AXIS":"6743.152","NORAD_CAT_ID":"55696","OBJECT_NAME":"STARLINK-30038","LAUNCH_DATE":"2023-02-27","OBJECT_ID":"2023-026B","TLE_LINE2":"2 55696  43.0019 152.2435 0000637 307.7484  52.3325 15.67863866  4630","EPOCH":"2023-03-21T21:43:58.120320","MEAN_MOTION_DDOT":"0.0000000000000","DECAY_DATE":null,"GP_ID":"228622418","TLE_LINE1":"1 55696U 23026B   23080.90553380  .00014269  00000-0  12938-3 0  9998","ARG_OF_PERICENTER":"307.7484","RCS_SIZE":"LARGE","REV_AT_EPOCH":"463","MEAN_ELEMENT_THEORY":"SGP4","PERIOD":"91.845","ECCENTRICITY":"0.00006370","CENTER_NAME":"EARTH","APOAPSIS":"365.446","MEAN_MOTION_DOT":"0.00014269","INCLINATION":"43.0019","RA_OF_ASC_NODE":"152.2435","TIME_SYSTEM":"UTC","ELEMENT_SET_NO":"999","CLASSIFICATION_TYPE":"U","REF_FRAME":"TEME","MEAN_MOTION":"15.67863866","MEAN_ANOMALY":"52.3325","PERIAPSIS":"364.587","FILE":"3866953"},{"CLASSIFICATION_TYPE":"U","MEAN_MOTION":"15.65215170","REF_FRAME":"TEME","MEAN_ANOMALY":"318.2758","ELEMENT_SET_NO":"999","FILE":"3867898","PERIAPSIS":"371.734","APOAPSIS":"373.510","MEAN_MOTION_DOT":"0.00823818","CENTER_NAME":"EARTH","TIME_SYSTEM":"UTC","INCLINATION":"43.0010","RA_OF_ASC_NODE":"146.4220","GP_ID":"228643951","TLE_LINE1":"1 55697U 23026C   23081.91667824  .00823818  00000-0  74171-2 0  9994","ARG_OF_PERICENTER":"257.0065","RCS_SIZE":"LARGE","REV_AT_EPOCH":"462","EPOCH":"2023-03-22T22:00:00.999936","DECAY_DATE":null,"MEAN_MOTION_DDOT":"0.0000000000000","ECCENTRICITY":"0.00013160","MEAN_ELEMENT_THEORY":"SGP4","PERIOD":"92.000","OBJECT_TYPE":"PAYLOAD","COUNTRY_CODE":"US","BSTAR":"0.00741710000000","EPHEMERIS_TYPE":"0","SEMIMAJOR_AXIS":"6750.757","SITE":"AFETR","NORAD_CAT_ID":"55697","LAUNCH_DATE":"2023-02-27","OBJECT_ID":"2023-026C","TLE_LINE2":"2 55697  43.0010 146.4220 0001316 257.0065 318.2758 15.65215170  4626","OBJECT_NAME":"STARLINK-30040"},{"OBJECT_NAME":"STARLINK-30061","LAUNCH_DATE":"2023-02-27","OBJECT_ID":"2023-026D","TLE_LINE2":"2 55698  43.0008 148.1846 0002591   9.4353 350.6561 15.64919127  4581","EPHEMERIS_TYPE":"0","SEMIMAJOR_AXIS":"6751.608","SITE":"AFETR","NORAD_CAT_ID":"55698","OBJECT_TYPE":"PAYLOAD","BSTAR":"0.00274490000000","COUNTRY_CODE":"US","PERIOD":"92.018","MEAN_ELEMENT_THEORY":"SGP4","ECCENTRICITY":"0.00025910","MEAN_MOTION_DDOT":"0.0000000000000","DECAY_DATE":null,"EPOCH":"2023-03-22T14:58:32.363616","ARG_OF_PERICENTER":"9.4353","RCS_SIZE":"LARGE","REV_AT_EPOCH":"458","TLE_LINE1":"1 55698U 23026D   23081.62398569  .00285886  00000-0  27449-2 0  9993","GP_ID":"228638581","RA_OF_ASC_NODE":"148.1846","INCLINATION":"43.0008","TIME_SYSTEM":"UTC","CENTER_NAME":"EARTH","APOAPSIS":"375.223","MEAN_MOTION_DOT":"0.00285886","PERIAPSIS":"371.724","FILE":"3867688","ELEMENT_SET_NO":"999","MEAN_ANOMALY":"350.6561","CLASSIFICATION_TYPE":"U","REF_FRAME":"TEME","MEAN_MOTION":"15.64919127"},{"OBJECT_ID":"2023-026E","LAUNCH_DATE":"2023-02-27","TLE_LINE2":"2 55699  42.9997 146.3882 0001789 269.8419 320.6750 15.65898333  4628","OBJECT_NAME":"STARLINK-30055","EPHEMERIS_TYPE":"0","SITE":"AFETR","NORAD_CAT_ID":"55699","SEMIMAJOR_AXIS":"6748.793","OBJECT_TYPE":"PAYLOAD","COUNTRY_CODE":"US","BSTAR":"0.00709380000000","ECCENTRICITY":"0.00017890","PERIOD":"91.960","MEAN_ELEMENT_THEORY":"SGP4","ARG_OF_PERICENTER":"269.8419","RCS_SIZE":"LARGE","REV_AT_EPOCH":"462","GP_ID":"228643962","TLE_LINE1":"1 55699U 23026E   23081.91667824  .00808249  00000-0  70938-2 0  9994","MEAN_MOTION_DDOT":"0.0000000000000","DECAY_DATE":null,"EPOCH":"2023-03-22T22:00:00.999936","TIME_SYSTEM":"UTC","RA_OF_ASC_NODE":"146.3882","INCLINATION":"42.9997","APOAPSIS":"371.866","MEAN_MOTION_DOT":"0.00808249","CENTER_NAME":"EARTH","FILE":"3867898","PERIAPSIS":"369.451","MEAN_ANOMALY":"320.6750","CLASSIFICATION_TYPE":"U","REF_FRAME":"TEME","MEAN_MOTION":"15.65898333","ELEMENT_SET_NO":"999"},{"CENTER_NAME":"EARTH","APOAPSIS":"372.619","MEAN_MOTION_DOT":"0.00794295","INCLINATION":"43.0007","RA_OF_ASC_NODE":"146.4239","TIME_SYSTEM":"UTC","ELEMENT_SET_NO":"999","CLASSIFICATION_TYPE":"U","MEAN_MOTION":"15.65612683","REF_FRAME":"TEME","MEAN_ANOMALY":"312.9278","PERIAPSIS":"370.340","FILE":"3867898","OBJECT_TYPE":"PAYLOAD","COUNTRY_CODE":"US","BSTAR":"0.00706170000000","EPHEMERIS_TYPE":"0","SITE":"AFETR","SEMIMAJOR_AXIS":"6749.614","NORAD_CAT_ID":"55700","OBJECT_NAME":"STARLINK-30064","LAUNCH_DATE":"2023-02-27","OBJECT_ID":"2023-026F","TLE_LINE2":"2 55700  43.0007 146.4239 0001688 263.5702 312.9278 15.65612683  4627","EPOCH":"2023-03-22T22:00:00.999936","DECAY_DATE":null,"MEAN_MOTION_DDOT":"0.0000000000000","GP_ID":"228643965","TLE_LINE1":"1 55700U 23026F   23081.91667824  .00794295  00000-0  70617-2 0  9996","ARG_OF_PERICENTER":"263.5702","RCS_SIZE":"LARGE","REV_AT_EPOCH":"462","MEAN_ELEMENT_THEORY":"SGP4","PERIOD":"91.977","ECCENTRICITY":"0.00016880"},{"CENTER_NAME":"EARTH","APOAPSIS":"373.907","MEAN_MOTION_DOT":"0.00239618","INCLINATION":"43.0006","RA_OF_ASC_NODE":"148.1520","TIME_SYSTEM":"UTC","ELEMENT_SET_NO":"999","CLASSIFICATION_TYPE":"U","REF_FRAME":"TEME","MEAN_MOTION":"15.65123624","MEAN_ANOMALY":"4.0167","PERIAPSIS":"371.863","FILE":"3867899","OBJECT_TYPE":"PAYLOAD","BSTAR":"0.00229580000000","COUNTRY_CODE":"US","EPHEMERIS_TYPE":"0","SITE":"AFETR","SEMIMAJOR_AXIS":"6751.020","NORAD_CAT_ID":"55701","OBJECT_NAME":"STARLINK-30065","LAUNCH_DATE":"2023-02-27","OBJECT_ID":"2023-026G","TLE_LINE2":"2 55701  43.0006 148.1520 0001514 356.0686   4.0167 15.65123624  4589","EPOCH":"2023-03-22T14:52:33.065760","DECAY_DATE":null,"MEAN_MOTION_DDOT":"0.0000000000000","TLE_LINE1":"1 55701U 23026G   23081.61982715  .00239618  00000-0  22958-2 0  9991","GP_ID":"228643969","ARG_OF_PERICENTER":"356.0686","RCS_SIZE":"LARGE","REV_AT_EPOCH":"458","MEAN_ELEMENT_THEORY":"SGP4","PERIOD":"92.006","ECCENTRICITY":"0.00015140"},{"MEAN_ELEMENT_THEORY":"SGP4","PERIOD":"91.963","ECCENTRICITY":"0.00012830","EPOCH":"2023-03-22T22:00:00.999936","MEAN_MOTION_DDOT":"0.0000000000000","DECAY_DATE":null,"GP_ID":"228643970","TLE_LINE1":"1 55702U 23026H   23081.91667824  .00790946  00000-0  69666-2 0  9999","REV_AT_EPOCH":"462","RCS_SIZE":"LARGE","ARG_OF_PERICENTER":"249.0769","OBJECT_NAME":"STARLINK-30042","TLE_LINE2":"2 55702  43.0010 146.4083 0001283 249.0769 333.0921 15.65854108  4622","LAUNCH_DATE":"2023-02-27","OBJECT_ID":"2023-026H","COUNTRY_CODE":"US","BSTAR":"0.00696660000000","OBJECT_TYPE":"PAYLOAD","NORAD_CAT_ID":"55702","SITE":"AFETR","SEMIMAJOR_AXIS":"6748.920","EPHEMERIS_TYPE":"0","PERIAPSIS":"369.920","FILE":"3867899","ELEMENT_SET_NO":"999","REF_FRAME":"TEME","MEAN_MOTION":"15.65854108","CLASSIFICATION_TYPE":"U","MEAN_ANOMALY":"333.0921","INCLINATION":"43.0010","RA_OF_ASC_NODE":"146.4083","TIME_SYSTEM":"UTC","CENTER_NAME":"EARTH","MEAN_MOTION_DOT":"0.00790946","APOAPSIS":"371.651"},{"MEAN_ELEMENT_THEORY":"SGP4","PERIOD":"92.006","ECCENTRICITY":"0.00021720","EPOCH":"2023-03-22T11:47:33.492768","MEAN_MOTION_DDOT":"0.0000000000000","DECAY_DATE":null,"GP_ID":"228637911","TLE_LINE1":"1 55703U 23026J   23081.49135987  .00137883  00000-0  13403-2 0  9996","REV_AT_EPOCH":"456","ARG_OF_PERICENTER":"343.0187","RCS_SIZE":"LARGE","OBJECT_NAME":"STARLINK-30044","TLE_LINE2":"2 55703  43.0008 148.9091 0002172 343.0187  17.0605 15.65107255  4568","OBJECT_ID":"2023-026J","LAUNCH_DATE":"2023-02-27","BSTAR":"0.00134030000000","COUNTRY_CODE":"US","OBJECT_TYPE":"PAYLOAD","NORAD_CAT_ID":"55703","SITE":"AFETR","SEMIMAJOR_AXIS":"6751.067","EPHEMERIS_TYPE":"0","PERIAPSIS":"371.466","FILE":"3867584","ELEMENT_SET_NO":"999","REF_FRAME":"TEME","MEAN_MOTION":"15.65107255","CLASSIFICATION_TYPE":"U","MEAN_ANOMALY":"17.0605","INCLINATION":"43.0008","RA_OF_ASC_NODE":"148.9091","TIME_SYSTEM":"UTC","CENTER_NAME":"EARTH","MEAN_MOTION_DOT":"0.00137883","APOAPSIS":"374.399"},{"ECCENTRICITY":"0.00018190","MEAN_ELEMENT_THEORY":"SGP4","PERIOD":"91.959","GP_ID":"228643968","TLE_LINE1":"1 55704U 23026K   23081.91667824  .00789548  00000-0  69385-2 0  9995","REV_AT_EPOCH":"462","RCS_SIZE":"LARGE","ARG_OF_PERICENTER":"273.7155","EPOCH":"2023-03-22T22:00:00.999936","DECAY_DATE":null,"MEAN_MOTION_DDOT":"0.0000000000000","TLE_LINE2":"2 55704  43.0012 146.3855 0001819 273.7155 318.4744 15.65916534  4622","OBJECT_ID":"2023-026K","LAUNCH_DATE":"2023-02-27","OBJECT_NAME":"STARLINK-30051","COUNTRY_CODE":"US","BSTAR":"0.00693850000000","OBJECT_TYPE":"PAYLOAD","SITE":"AFETR","SEMIMAJOR_AXIS":"6748.741","NORAD_CAT_ID":"55704","EPHEMERIS_TYPE":"0","FILE":"3867899","PERIAPSIS":"369.379","MEAN_MOTION":"15.65916534","REF_FRAME":"TEME","CLASSIFICATION_TYPE":"U","MEAN_ANOMALY":"318.4744","ELEMENT_SET_NO":"999","TIME_SYSTEM":"UTC","INCLINATION":"43.0012","RA_OF_ASC_NODE":"146.3855","MEAN_MOTION_DOT":"0.00789548","APOAPSIS":"371.834","CENTER_NAME":"EARTH"},{"INCLINATION":"43.0012","RA_OF_ASC_NODE":"146.3702","TIME_SYSTEM":"UTC","CENTER_NAME":"EARTH","MEAN_MOTION_DOT":"0.00785589","APOAPSIS":"372.016","PERIAPSIS":"370.538","FILE":"3867688","ELEMENT_SET_NO":"999","REF_FRAME":"TEME","MEAN_MOTION":"15.65683144","CLASSIFICATION_TYPE":"U","MEAN_ANOMALY":"313.5313","OBJECT_NAME":"STARLINK-30057","TLE_LINE2":"2 55705  43.0012 146.3702 0001095 284.9993 313.5313 15.65683144  4620","OBJECT_ID":"2023-026L","LAUNCH_DATE":"2023-02-27","BSTAR":"0.00686800000000","COUNTRY_CODE":"US","OBJECT_TYPE":"PAYLOAD","NORAD_CAT_ID":"55705","SITE":"AFETR","SEMIMAJOR_AXIS":"6749.412","EPHEMERIS_TYPE":"0","MEAN_ELEMENT_THEORY":"SGP4","PERIOD":"91.973","ECCENTRICITY":"0.00010950","EPOCH":"2023-03-22T22:00:00.999936","DECAY_DATE":null,"MEAN_MOTION_DDOT":"0.0000000000000","GP_ID":"228638574","TLE_LINE1":"1 55705U 23026L   23081.91667824  .00785589  00000-0  68680-2 0  9994","REV_AT_EPOCH":"462","RCS_SIZE":"LARGE","ARG_OF_PERICENTER":"284.9993"}];
